{
  "type": "FeatureCollection",
  "features": [
    {
      "type": "Feature",
      "properties": {
        "norad_id": 57400,
        "name": "TIANMU-1 08",
        "group": "weather",
        "lat": 80.34626496062322,
        "lon": -14.602996497024323,
        "alt_km": 469.24903276544956,
        "timestamp": "2025-12-10T11:33:53.034499+00:00",
        "meta_object_name": "TIANMU-1 08",
        "meta_object_id": "2023-101B",
        "meta_epoch": "2025-12-10T04:54:48.754080",
        "meta_mean_motion": 15.27995343,
        "meta_eccentricity": 0.0007555,
        "meta_inclination": 97.2865,
        "meta_ra_of_asc_node": 33.9086,
        "meta_arg_of_pericenter": 90.8088,
        "meta_mean_anomaly": 269.4018,
        "meta_ephemeris_type": 0,
        "meta_classification_type": "U",
        "meta_norad_cat_id": 57400,
        "meta_element_set_no": 999,
        "meta_rev_at_epoch": 13276,
        "meta_bstar": 0.00036731,
        "meta_mean_motion_dot": 9.971e-05,
        "meta_mean_motion_ddot": 0,
        "tle_line1": "1 57400U 23101B   25344.20473095  .00009971  00000+0  36731-3 0  9999",
        "tle_line2": "2 57400  97.2865  33.9086 0007555  90.8088 269.4018 15.27995343132766"
      },
      "geometry": {
        "type": "Point",
        "coordinates": [
          -14.602996497024323,
          80.34626496062322
        ]
      }
    },
    {
      "type": "Feature",
      "properties": {
        "norad_id": 57401,
        "name": "TIANMU-1 09",
        "group": "weather",
        "lat": 23.527925989023924,
        "lon": -143.11412937328615,
        "alt_km": 479.4449731692157,
        "timestamp": "2025-12-10T11:33:53.034510+00:00",
        "meta_object_name": "TIANMU-1 09",
        "meta_object_id": "2023-101C",
        "meta_epoch": "2025-12-10T04:35:50.983584",
        "meta_mean_motion": 15.28022151,
        "meta_eccentricity": 0.000683,
        "meta_inclination": 97.2822,
        "meta_ra_of_asc_node": 33.4105,
        "meta_arg_of_pericenter": 90.6844,
        "meta_mean_anomaly": 269.5178,
        "meta_ephemeris_type": 0,
        "meta_classification_type": "U",
        "meta_norad_cat_id": 57401,
        "meta_element_set_no": 999,
        "meta_rev_at_epoch": 13276,
        "meta_bstar": 0.00036362,
        "meta_mean_motion_dot": 9.876e-05,
        "meta_mean_motion_ddot": 0,
        "tle_line1": "1 57401U 23101C   25344.19156231  .00009876  00000+0  36362-3 0  9992",
        "tle_line2": "2 57401  97.2822  33.4105 0006830  90.6844 269.5178 15.28022151132767"
      },
      "geometry": {
        "type": "Point",
        "coordinates": [
          -143.11412937328615,
          23.527925989023924
        ]
      }
    },
    {
      "type": "Feature",
      "properties": {
        "norad_id": 57402,
        "name": "TIANMU-1 10",
        "group": "weather",
        "lat": -31.82038131187266,
        "lon": 39.09786997015865,
        "alt_km": 490.98136408924984,
        "timestamp": "2025-12-10T11:33:53.034520+00:00",
        "meta_object_name": "TIANMU-1 10",
        "meta_object_id": "2023-101D",
        "meta_epoch": "2025-12-10T03:50:47.936256",
        "meta_mean_motion": 15.28012268,
        "meta_eccentricity": 0.0008565,
        "meta_inclination": 97.2902,
        "meta_ra_of_asc_node": 34.227,
        "meta_arg_of_pericenter": 90.8747,
        "meta_mean_anomaly": 269.3474,
        "meta_ephemeris_type": 0,
        "meta_classification_type": "U",
        "meta_norad_cat_id": 57402,
        "meta_element_set_no": 999,
        "meta_rev_at_epoch": 13275,
        "meta_bstar": 0.00038806,
        "meta_mean_motion_dot": 0.00010547,
        "meta_mean_motion_ddot": 0,
        "tle_line1": "1 57402U 23101D   25344.16027704  .00010547  00000+0  38806-3 0  9994",
        "tle_line2": "2 57402  97.2902  34.2270 0008565  90.8747 269.3474 15.28012268132754"
      },
      "geometry": {
        "type": "Point",
        "coordinates": [
          39.09786997015865,
          -31.82038131187266
        ]
      }
    },
    {
      "type": "Feature",
      "properties": {
        "norad_id": 57490,
        "name": "FENGYUN 3F",
        "group": "weather",
        "lat": 24.95604562595845,
        "lon": 48.72127295905389,
        "alt_km": 824.7771880173204,
        "timestamp": "2025-12-10T11:33:53.034532+00:00",
        "meta_object_name": "FENGYUN 3F",
        "meta_object_id": "2023-111A",
        "meta_epoch": "2025-12-10T04:40:52.383072",
        "meta_mean_motion": 14.19892534,
        "meta_eccentricity": 6.48e-05,
        "meta_inclination": 98.7087,
        "meta_ra_of_asc_node": 52.5295,
        "meta_arg_of_pericenter": 97.0114,
        "meta_mean_anomaly": 263.1136,
        "meta_ephemeris_type": 0,
        "meta_classification_type": "U",
        "meta_norad_cat_id": 57490,
        "meta_element_set_no": 999,
        "meta_rev_at_epoch": 12204,
        "meta_bstar": 8.6087e-05,
        "meta_mean_motion_dot": 1.39e-06,
        "meta_mean_motion_ddot": 0,
        "tle_line1": "1 57490U 23111A   25344.19505073  .00000139  00000+0  86087-4 0  9996",
        "tle_line2": "2 57490  98.7087  52.5295 0000648  97.0114 263.1136 14.19892534122041"
      },
      "geometry": {
        "type": "Point",
        "coordinates": [
          48.72127295905389,
          24.95604562595845
        ]
      }
    },
    {
      "type": "Feature",
      "properties": {
        "norad_id": 58584,
        "name": "ARKTIKA-M 2",
        "group": "weather",
        "lat": 58.67892184326038,
        "lon": -128.76706807326724,
        "alt_km": 35310.4120992041,
        "timestamp": "2025-12-10T11:33:53.034546+00:00",
        "meta_object_name": "ARKTIKA-M 2",
        "meta_object_id": "2023-198A",
        "meta_epoch": "2025-12-08T20:10:13.977120",
        "meta_mean_motion": 2.0060476,
        "meta_eccentricity": 0.68646991,
        "meta_inclination": 63.2247,
        "meta_ra_of_asc_node": 175.3152,
        "meta_arg_of_pericenter": 268.1185,
        "meta_mean_anomaly": 18.8267,
        "meta_ephemeris_type": 0,
        "meta_classification_type": "U",
        "meta_norad_cat_id": 58584,
        "meta_element_set_no": 999,
        "meta_rev_at_epoch": 1450,
        "meta_bstar": 0,
        "meta_mean_motion_dot": 1.66e-06,
        "meta_mean_motion_ddot": 0,
        "tle_line1": "1 58584U 23198A   25342.84043955  .00000166  00000+0  00000+0 0  9998",
        "tle_line2": "2 58584  63.2247 175.3152 6864699 268.1185  18.8267  2.00604760 14506"
      },
      "geometry": {
        "type": "Point",
        "coordinates": [
          -128.76706807326724,
          58.67892184326038
        ]
      }
    },
    {
      "type": "Feature",
      "properties": {
        "norad_id": 58645,
        "name": "TIANMU-1 11",
        "group": "weather",
        "lat": 4.527115784313736,
        "lon": -175.26897393777807,
        "alt_km": 499.1554880266849,
        "timestamp": "2025-12-10T11:33:53.034560+00:00",
        "meta_object_name": "TIANMU-1 11",
        "meta_object_id": "2023-205A",
        "meta_epoch": "2025-12-10T04:29:48.064704",
        "meta_mean_motion": 15.24548668,
        "meta_eccentricity": 0.0008119,
        "meta_inclination": 97.361,
        "meta_ra_of_asc_node": 3.8552,
        "meta_arg_of_pericenter": 320.8768,
        "meta_mean_anomaly": 39.1881,
        "meta_ephemeris_type": 0,
        "meta_classification_type": "U",
        "meta_norad_cat_id": 58645,
        "meta_element_set_no": 999,
        "meta_rev_at_epoch": 10870,
        "meta_bstar": 0.00034509,
        "meta_mean_motion_dot": 8.435e-05,
        "meta_mean_motion_ddot": 0,
        "tle_line1": "1 58645U 23205A   25344.18736186  .00008435  00000+0  34509-3 0  9991",
        "tle_line2": "2 58645  97.3610   3.8552 0008119 320.8768  39.1881 15.24548668108707"
      },
      "geometry": {
        "type": "Point",
        "coordinates": [
          -175.26897393777807,
          4.527115784313736
        ]
      }
    },
    {
      "type": "Feature",
      "properties": {
        "norad_id": 58646,
        "name": "TIANMU-1 12",
        "group": "weather",
        "lat": 28.243217007869227,
        "lon": -0.030419211982895,
        "alt_km": 491.08804322215656,
        "timestamp": "2025-12-10T11:33:53.034570+00:00",
        "meta_object_name": "TIANMU-1 12",
        "meta_object_id": "2023-205B",
        "meta_epoch": "2025-12-10T03:33:47.916000",
        "meta_mean_motion": 15.24428363,
        "meta_eccentricity": 0.0006025,
        "meta_inclination": 97.3597,
        "meta_ra_of_asc_node": 3.6234,
        "meta_arg_of_pericenter": 303.0376,
        "meta_mean_anomaly": 57.0283,
        "meta_ephemeris_type": 0,
        "meta_classification_type": "U",
        "meta_norad_cat_id": 58646,
        "meta_element_set_no": 999,
        "meta_rev_at_epoch": 10868,
        "meta_bstar": 0.00036641,
        "meta_mean_motion_dot": 8.925e-05,
        "meta_mean_motion_ddot": 0,
        "tle_line1": "1 58646U 23205B   25344.14847125  .00008925  00000+0  36641-3 0  9997",
        "tle_line2": "2 58646  97.3597   3.6234 0006025 303.0376  57.0283 15.24428363108680"
      },
      "geometry": {
        "type": "Point",
        "coordinates": [
          -0.030419211982895,
          28.243217007869227
        ]
      }
    }
  ]
}